{
    "links": {
        "self": "http://www.neowsapp.com/rest/v1/neo/54092916?api_key=iIulBulltgU6a56xZRHN4H3l9WmuAYTsLGpBGhQ2"
    },
    "id": "54092916",
    "neo_reference_id": "54092916",
    "name": "(2020 WH3)",
    "designation": "2020 WH3",
    "nasa_jpl_url": "http://ssd.jpl.nasa.gov/sbdb.cgi?sstr=54092916",
    "absolute_magnitude_h": 26.611,
    "estimated_diameter": {
        "kilometers": {
            "estimated_diameter_min": 0.0126577052,
            "estimated_diameter_max": 0.0283034893
        },
        "meters": {
            "estimated_diameter_min": 12.6577051982,
            "estimated_diameter_max": 28.3034892624
        },
        "miles": {
            "estimated_diameter_min": 0.0078651309,
            "estimated_diameter_max": 0.0175869674
        },
        "feet": {
            "estimated_diameter_min": 41.5279055225,
            "estimated_diameter_max": 92.8592197116
        }
    },
    "is_potentially_hazardous_asteroid": false,
    "close_approach_data": [
        {
            "close_approach_date": "2020-11-26",
            "close_approach_date_full": "2020-Nov-26 18:51",
            "epoch_date_close_approach": 1606416660000,
            "relative_velocity": {
                "kilometers_per_second": "6.3679909922",
                "kilometers_per_hour": "22924.767571742",
                "miles_per_hour": "14244.5590503416"
            },
            "miss_distance": {
                "astronomical": "0.0360491204",
                "lunar": "14.0231078356",
                "kilometers": "5392871.627213548",
                "miles": "3350975.0423730424"
            },
            "orbiting_body": "Earth"
        }
    ],
    "orbital_data": {
        "orbit_id": "2",
        "orbit_determination_date": "2020-11-24 05:23:49",
        "first_observation_date": "2020-11-22",
        "last_observation_date": "2020-11-23",
        "data_arc_in_days": 1,
        "observations_used": 34,
        "orbit_uncertainty": "8",
        "minimum_orbit_intersection": ".0329925",
        "jupiter_tisserand_invariant": "3.997",
        "epoch_osculation": "2459176.5",
        "eccentricity": ".4231188869402643",
        "semi_major_axis": "1.764583490373853",
        "inclination": "6.584809795518654",
        "ascending_node_longitude": "246.5157880316125",
        "orbital_period": "856.1734264890299",
        "perihelion_distance": "1.017954888013702",
        "perihelion_argument": "186.3725802919321",
        "aphelion_distance": "2.511212092734004",
        "perihelion_time": "2459186.842524321575",
        "mean_anomaly": "355.65122130567",
        "mean_motion": ".4204755588786224",
        "equinox": "J2000",
        "orbit_class": {
            "orbit_class_type": "AMO",
            "orbit_class_description": "Near-Earth asteroid orbits similar to that of 1221 Amor",
            "orbit_class_range": "1.017 AU < q (perihelion) < 1.3 AU"
        }
    },
    "is_sentry_object": false
}